SENTINEL-6              
1 46984U 20086A   24228.95974636 -.00000040  00000+0  89750-4 0  9991
2 46984  66.0406  87.1241 0007770 269.6355  90.3769 12.80930653174480
